{"type": "FeatureCollection", "features": [ {"type": "Feature", "properties": {"norad_id": 41785, "name": "ALSAT 1B", "group": "resource", "lat": -79.42023285392288, "lon": 56.81933658611048, "alt_km": 668.5177463182245, "timestamp": "2025-12-24T11:32:59.661336+00:00", "meta": {"OBJECT_NAME": "ALSAT 1B", "OBJECT_ID": "2016-059C", "EPOCH": "2025-12-24T05:24:02.227392", "MEAN_MOTION": 14.72087883, "ECCENTRICITY": 0.0010753, "INCLINATION": 97.7804, "RA_OF_ASC_NODE": 9.5184, "ARG_OF_PERICENTER": 71.3545, "MEAN_ANOMALY": 288.883, "EPHEMERIS_TYPE": 0, "CLASSIFICATION_TYPE": "U", "NORAD_CAT_ID": 41785, "ELEMENT_SET_NO": 999, "REV_AT_EPOCH": 49483, "BSTAR": 0.0001153, "MEAN_MOTION_DOT": 6.79e-06, "MEAN_MOTION_DDOT": 0}, "tle": {"line1": "1 41785U 16059C   25358.22502578  .00000679  00000+0  11530-3 0  9994", "line2": "2 41785  97.7804   9.5184 0010753  71.3545 288.8830 14.72087883494833"}}, "geometry": {"type": "Point", "coordinates": [56.81933658611048, -79.42023285392288]}}, {"type": "Feature", "properties": {"norad_id": 41787, "name": "PATHFINDER 1", "group": "resource", "lat": 23.970771284400346, "lon": -175.78962047774695, "alt_km": 676.2453447109247, "timestamp": "2025-12-24T11:32:59.661346+00:00", "meta": {"OBJECT_NAME": "PATHFINDER 1", "OBJECT_ID": "2016-059E", "EPOCH": "2025-12-23T23:23:20.655168", "MEAN_MOTION": 14.67340059, "ECCENTRICITY": 0.0029664, "INCLINATION": 97.8138, "RA_OF_ASC_NODE": 0.2268, "ARG_OF_PERICENTER": 46.9323, "MEAN_ANOMALY": 313.4358, "EPHEMERIS_TYPE": 0, "CLASSIFICATION_TYPE": "U", "NORAD_CAT_ID": 41787, "ELEMENT_SET_NO": 999, "REV_AT_EPOCH": 49401, "BSTAR": 0.00014583, "MEAN_MOTION_DOT": 7.82e-06, "MEAN_MOTION_DDOT": 0}, "tle": {"line1": "1 41787U 16059E   25357.97454462  .00000782  00000+0  14583-3 0  9991", "line2": "2 41787  97.8138   0.2268 0029664  46.9323 313.4358 14.67340059494011"}}, "geometry": {"type": "Point", "coordinates": [-175.78962047774695, 23.970771284400346]}}, {"type": "Feature", "properties": {"norad_id": 41790, "name": "SCATSAT 1", "group": "resource", "lat": -77.9972306029622, "lon": 97.64335084598295, "alt_km": 679.127936863797, "timestamp": "2025-12-24T11:32:59.661356+00:00", "meta": {"OBJECT_NAME": "SCATSAT 1", "OBJECT_ID": "2016-059H", "EPOCH": "2025-12-24T02:10:35.582304", "MEAN_MOTION": 14.78971751, "ECCENTRICITY": 0.0056478, "INCLINATION": 98.1447, "RA_OF_ASC_NODE": 54.902, "ARG_OF_PERICENTER": 92.2518, "MEAN_ANOMALY": 268.5161, "EPHEMERIS_TYPE": 0, "CLASSIFICATION_TYPE": "U", "NORAD_CAT_ID": 41790, "ELEMENT_SET_NO": 999, "REV_AT_EPOCH": 7570, "BSTAR": 0.00019624, "MEAN_MOTION_DOT": 1.431e-05, "MEAN_MOTION_DDOT": 0}, "tle": {"line1": "1 41790U 16059H   25358.09068961  .00001431  00000+0  19624-3 0  9997", "line2": "2 41790  98.1447  54.9020 0056478  92.2518 268.5161 14.78971751 75701"}}, "geometry": {"type": "Point", "coordinates": [97.64335084598295, -77.9972306029622]}}, {"type": "Feature", "properties": {"norad_id": 41875, "name": "GOKTURK 1A", "group": "resource", "lat": 40.4313091904574, "lon": -116.3171466017073, "alt_km": 680.2937145822916, "timestamp": "2025-12-24T11:32:59.661366+00:00", "meta": {"OBJECT_NAME": "GOKTURK 1A", "OBJECT_ID": "2016-073A", "EPOCH": "2025-12-24T04:47:48.252192", "MEAN_MOTION": 14.62792418, "ECCENTRICITY": 0.0001294, "INCLINATION": 98.1429, "RA_OF_ASC_NODE": 250.4123, "ARG_OF_PERICENTER": 81.2721, "MEAN_ANOMALY": 278.8627, "EPHEMERIS_TYPE": 0, "CLASSIFICATION_TYPE": "U", "NORAD_CAT_ID": 41875, "ELEMENT_SET_NO": 999, "REV_AT_EPOCH": 48324, "BSTAR": 0.00013199, "MEAN_MOTION_DOT": 6.27e-06, "MEAN_MOTION_DDOT": 0}, "tle": {"line1": "1 41875U 16073A   25358.19986403  .00000627  00000+0  13199-3 0  9995", "line2": "2 41875  98.1429 250.4123 0001294  81.2721 278.8627 14.62792418483249"}}, "geometry": {"type": "Point", "coordinates": [-116.3171466017073, 40.4313091904574]}}, {"type": "Feature", "properties": {"norad_id": 41877, "name": "RESOURCESAT-2A", "group": "resource", "lat": 27.492991663552964, "lon": -107.12152901929612, "alt_km": 818.0156610362556, "timestamp": "2025-12-24T11:32:59.661377+00:00", "meta": {"OBJECT_NAME": "RESOURCESAT-2A", "OBJECT_ID": "2016-074A", "EPOCH": "2025-12-24T04:04:48.565056", "MEAN_MOTION": 14.21605164, "ECCENTRICITY": 0.0001605, "INCLINATION": 98.7742, "RA_OF_ASC_NODE": 67.959, "ARG_OF_PERICENTER": 204.2096, "MEAN_ANOMALY": 155.9005, "EPHEMERIS_TYPE": 0, "CLASSIFICATION_TYPE": "U", "NORAD_CAT_ID": 41877, "ELEMENT_SET_NO": 999, "REV_AT_EPOCH": 46943, "BSTAR": 0.00015796, "MEAN_MOTION_DOT": 3.02e-06, "MEAN_MOTION_DDOT": 0}, "tle": {"line1": "1 41877U 16074A   25358.17000654  .00000302  00000+0  15796-3 0  9996", "line2": "2 41877  98.7742  67.9590 0001605 204.2096 155.9005 14.21605164469438"}}, "geometry": {"type": "Point", "coordinates": [-107.12152901929612, 27.492991663552964]}}, {"type": "Feature", "properties": {"norad_id": 41948, "name": "CARTOSAT-2D", "group": "resource", "lat": -39.58241813250328, "lon": 61.998825951094446, "alt_km": 518.3273707892658, "timestamp": "2025-12-24T11:32:59.661388+00:00", "meta": {"OBJECT_NAME": "CARTOSAT-2D", "OBJECT_ID": "2017-008A", "EPOCH": "2025-12-24T03:49:18.032736", "MEAN_MOTION": 15.19176446, "ECCENTRICITY": 0.0005334, "INCLINATION": 97.4372, "RA_OF_ASC_NODE": 55.4819, "ARG_OF_PERICENTER": 121.0522, "MEAN_ANOMALY": 239.1237, "EPHEMERIS_TYPE": 0, "CLASSIFICATION_TYPE": "U", "NORAD_CAT_ID": 41948, "ELEMENT_SET_NO": 999, "REV_AT_EPOCH": 49100, "BSTAR": 0.00024689, "MEAN_MOTION_DOT": 5.126e-05, "MEAN_MOTION_DDOT": 0}, "tle": {"line1": "1 41948U 17008A   25358.15923649  .00005126  00000+0  24689-3 0  9999", "line2": "2 41948  97.4372  55.4819 0005334 121.0522 239.1237 15.19176446491005"}}, "geometry": {"type": "Point", "coordinates": [61.998825951094446, -39.58241813250328]}}, {"type": "Feature", "properties": {"norad_id": 42063, "name": "SENTINEL-2B", "group": "resource", "lat": 30.138163538402118, "lon": -104.21525006632591, "alt_km": 786.9644803556866, "timestamp": "2025-12-24T11:32:59.661398+00:00", "meta": {"OBJECT_NAME": "SENTINEL-2B", "OBJECT_ID": "2017-013A", "EPOCH": "2025-12-24T04:08:26.974752", "MEAN_MOTION": 14.30815384, "ECCENTRICITY": 0.0001183, "INCLINATION": 98.5703, "RA_OF_ASC_NODE": 70.4577, "ARG_OF_PERICENTER": 92.0237, "MEAN_ANOMALY": 268.1081, "EPHEMERIS_TYPE": 0, "CLASSIFICATION_TYPE": "U", "NORAD_CAT_ID": 42063, "ELEMENT_SET_NO": 999, "REV_AT_EPOCH": 45961, "BSTAR": 9.5819e-05, "MEAN_MOTION_DOT": 2.08e-06, "MEAN_MOTION_DDOT": 0}, "tle": {"line1": "1 42063U 17013A   25358.17253443  .00000208  00000+0  95819-4 0  9994", "line2": "2 42063  98.5703  70.4577 0001183  92.0237 268.1081 14.30815384459613"}}, "geometry": {"type": "Point", "coordinates": [-104.21525006632591, 30.138163538402118]}}, {"type": "Feature", "properties": {"norad_id": 42767, "name": "CARTOSAT-2E", "group": "resource", "lat": -49.39705426948402, "lon": -132.87074394635968, "alt_km": 513.481763870911, "timestamp": "2025-12-24T11:32:59.661409+00:00", "meta": {"OBJECT_NAME": "CARTOSAT-2E", "OBJECT_ID": "2017-036C", "EPOCH": "2025-12-23T09:15:01.065600", "MEAN_MOTION": 15.1929816, "ECCENTRICITY": 0.00027834, "INCLINATION": 97.4537, "RA_OF_ASC_NODE": 54.8332, "ARG_OF_PERICENTER": 189.294, "MEAN_ANOMALY": 170.8244, "EPHEMERIS_TYPE": 0, "CLASSIFICATION_TYPE": "U", "NORAD_CAT_ID": 42767, "ELEMENT_SET_NO": 999, "REV_AT_EPOCH": 47145, "BSTAR": 0.00026726953, "MEAN_MOTION_DOT": 5.574e-05, "MEAN_MOTION_DDOT": 0}, "tle": {"line1": "1 42767U 17036C   25357.38542900  .00005574  00000+0  26727-3 0  9993", "line2": "2 42767  97.4537  54.8332 0002783 189.2940 170.8244 15.19298160471450"}}, "geometry": {"type": "Point", "coordinates": [-132.87074394635968, -49.39705426948402]}}, {"type": "Feature", "properties": {"norad_id": 42920, "name": "FORMOSAT-5", "group": "resource", "lat": -79.56176449412771, "lon": 124.4671572863362, "alt_km": 723.7380871544055, "timestamp": "2025-12-24T11:32:59.661420+00:00", "meta": {"OBJECT_NAME": "FORMOSAT-5", "OBJECT_ID": "2017-049A", "EPOCH": "2025-12-24T03:39:28.675872", "MEAN_MOTION": 14.50766878, "ECCENTRICITY": 0.0009829, "INCLINATION": 98.2439, "RA_OF_ASC_NODE": 72.2416, "ARG_OF_PERICENTER": 262.4444, "MEAN_ANOMALY": 97.5634, "EPHEMERIS_TYPE": 0, "CLASSIFICATION_TYPE": "U", "NORAD_CAT_ID": 42920, "ELEMENT_SET_NO": 999, "REV_AT_EPOCH": 44129, "BSTAR": 6.8634e-05, "MEAN_MOTION_DOT": 2.26e-06, "MEAN_MOTION_DDOT": 0}, "tle": {"line1": "1 42920U 17049A   25358.15241523  .00000226  00000+0  68634-4 0  9994", "line2": "2 42920  98.2439  72.2416 0009829 262.4444  97.5634 14.50766878441296"}}, "geometry": {"type": "Point", "coordinates": [124.4671572863362, -79.56176449412771]}}, {"type": "Feature", "properties": {"norad_id": 42969, "name": "SENTINEL-5P", "group": "resource", "lat": 68.4622058614381, "lon": -86.09160764245087, "alt_km": 819.5793475732717, "timestamp": "2025-12-24T11:32:59.661430+00:00", "meta": {"OBJECT_NAME": "SENTINEL-5P", "OBJECT_ID": "2017-064A", "EPOCH": "2025-12-24T02:45:42.728832", "MEAN_MOTION": 14.19520171, "ECCENTRICITY": 0.0001045, "INCLINATION": 98.7801, "RA_OF_ASC_NODE": 296.5991, "ARG_OF_PERICENTER": 91.0933, "MEAN_ANOMALY": 269.0363, "EPHEMERIS_TYPE": 0, "CLASSIFICATION_TYPE": "U", "NORAD_CAT_ID": 42969, "ELEMENT_SET_NO": 999, "REV_AT_EPOCH": 42472, "BSTAR": 5.5362e-05, "MEAN_MOTION_DOT": 7.2e-07, "MEAN_MOTION_DDOT": 0}, "tle": {"line1": "1 42969U 17064A   25358.11507788  .00000072  00000+0  55362-4 0  9991", "line2": "2 42969  98.7801 296.5991 0001045  91.0933 269.0363 14.19520171424720"}}, "geometry": {"type": "Point", "coordinates": [-86.09160764245087, 68.4622058614381]}}]}